DELTA 2 R/B(1)          
1 20453U 90008B   26067.02711154  .00083705  00000+0  98454-3 0  9998
2 20453  35.6040 185.7642 0085724 243.3717 115.8217 15.55745350925876
COSMOS 2058             
1 20465U 90010A   26067.19153787  .00006410  00000+0  37862-3 0  9998
2 20465  82.4670  48.9039 0009504 348.9049  11.1970 15.11306455942010
SL-14 R/B               
1 20466U 90010B   26067.06817934  .00000565  00000+0  65588-4 0  9998
2 20466  82.4988 268.9124 0018644 308.0415  51.9117 14.83567473928242
SL-14 R/B               
1 20511U 90018B   26067.15197706  .00000769  00000+0  93432-4 0  9990
2 20511  82.5200 224.5270 0017662  96.6874 263.6351 14.82143367922358
HST                     
1 20580U 90037B   26067.05050795  .00011037  00000+0  36739-3 0  9998
2 20580  28.4714  51.1800 0001798 110.1029 249.9760 15.29454135773066
SL-16 R/B               
1 20625U 90046B   26067.07127814 -.00000240  00000+0 -98895-4 0  9995
2 20625  70.9990 301.3139 0016227 301.8291  58.1251 14.15013037848167
COSMOS 2084             
1 20663U 90055A   26067.12801113  .00003967  00000+0  28641-3 0  9992
2 20663  62.7923 340.9045 0017269 189.4667 170.6111 15.05641088936080
SL-6 R/B(2)             
1 20666U 90055D   26066.97550237  .00002998  00000+0  23148-3 0  9995
2 20666  62.7823 259.6802 0024393 346.5975  13.4473 15.03585528937937
SL-8 R/B                
1 20775U 90078B   26067.03008898  .00021205  00000+0  62439-3 0  9998
2 20775  82.9001 252.8038 0362632  19.5887 341.8852 14.88993682809052
SL-8 R/B                
1 21088U 91006B   26066.82000058  .00000085  00000+0  70243-4 0  9990
2 21088  82.9466 171.4358 0023192  43.4194  75.1074 13.77493949763812
OKEAN-3                 
1 21397U 91039A   26067.14961342  .00005055  00000+0  35570-3 0  9992
2 21397  82.5188 338.3353 0014085 343.9568  16.1211 15.04790906864809
COSMOS 2151             
1 21422U 91042A   26067.14915707  .00002335  00000+0  18485-3 0  9993
2 21422  82.4930  85.1627 0014010  68.4741 291.7975 15.00098793862967
SL-14 R/B               
1 21423U 91042B   26067.13712135  .00000731  00000+0  89482-4 0  9997
2 21423  82.4920 221.6381 0015724 244.1694 115.7899 14.81828069852845
ERS-1                   
1 21574U 91050A   26067.02906674  .00000451  00000+0  15895-3 0  9999
2 21574  98.7884  85.2220 0031538 205.4587 154.5048 14.39448063815491
ARIANE 40 R/B           
1 21610U 91050F   26067.15331559  .00000416  00000+0  13694-3 0  9994
2 21610  98.2014 119.4473 0004353  84.5937 275.5750 14.42892482818772
INTERCOSMOS 25          
1 21819U 91086A   26067.08920959  .00001629  00000+0  31231-3 0  9998
2 21819  82.6049 310.9762 1486999 120.3783 255.2719 12.11993967496491
SL-8 R/B                
1 21876U 92008B   26067.05938203  .00000011  00000+0 -50561-5 0  9998
2 21876  82.9225 268.9915 0035462 137.7699 333.1890 13.75969785709199
SL-8 R/B                
1 21938U 92020B   26067.16497209  .00000108  00000+0  96323-4 0  9990
2 21938  82.9338 154.8934 0027732 303.2408 119.2347 13.75549419700926
USA 81                  
1 21949U 92023A   26067.12193580  .00000228  00000+0  77042-4 0  9996
2 21949  85.0087 132.3456 0002515  78.8208 281.3267 14.32367470 94565
COSMOS 2219             
1 22219U 92076A   26067.10624016  .00000192  00000+0  12555-3 0  9993
2 22219  71.0630  21.3770 0019098 209.1203 150.8856 14.14092003718158
SL-16 R/B               
1 22220U 92076B   26067.09464582 -.00000128  00000+0 -40045-4 0  9990
2 22220  71.0006 191.7329 0010495  99.2965  73.3388 14.16860082721609
COSMOS 2221             
1 22236U 92080A   26067.09917348  .00002319  00000+0  20322-3 0  9992
2 22236  82.5009 280.6049 0013898 192.5803 167.5074 14.96194104780551
SL-16 R/B               
1 22285U 92093B   26067.11408539 -.00000199  00000+0 -77649-4 0  9991
2 22285  71.0242   7.5728 0006380 295.2642  64.7820 14.15448412712936
COSMOS 2228             
1 22286U 92094A   26067.11659052  .00003224  00000+0  27604-3 0  9996
2 22286  82.5154 238.8166 0016857 310.3529  49.6221 14.97181932775829
SL-16 R/B               
1 22566U 93016B   26066.80097334  .00000212  00000+0  13337-3 0  9998
2 22566  71.0068 219.1474 0011645 316.8205  43.2004 14.15307984701907
COSMOS 2242             
1 22626U 93024A   26067.03122687  .00003013  00000+0  26221-3 0  9998
2 22626  82.5154 268.3031 0015283 314.8631  45.1348 14.96541018780147
SL-16 R/B               
1 22803U 93059B   26067.13585929 -.00000155  00000+0 -53018-4 0  9997
2 22803  70.9926  14.4021 0018612 218.7778 141.2011 14.17231870679310
ARIANE 40 R/B           
1 22830U 93061H   26067.16230288  .00000284  00000+0  12003-3 0  9997
2 22830  98.4918 136.0801 0009562 290.2131  69.8024 14.32860212693887
COSMOS 2278             
1 23087U 94023A   26066.75889895  .00000205  00000+0  13189-3 0  9998
2 23087  71.0550 179.1363 0007902  17.1842 342.9547 14.14378193644538
SL-16 R/B               
1 23088U 94023B   26067.15968564 -.00000221  00000+0 -89450-4 0  9990
2 23088  70.9986  74.1006 0005711 287.0696  72.9801 14.15012470645874
SL-16 R/B               
1 23343U 94074B   26067.10362042  .00000702  00000+0  10076-3 0  9993
2 23343  97.7111  97.9855 0005664 216.4629 210.5776 14.79406268687014
SL-16 R/B               
1 23405U 94077B   26067.14190791 -.00000113  00000+0 -33530-4 0  9998
2 23405  70.9853 355.7448 0003192 214.3735 145.7182 14.15561164616010
ARIANE 40+ R/B          
1 23561U 95021B   26067.14293941  .00000419  00000+0  14737-3 0  9996
2 23561  98.4500 138.6465 0007588 140.5109 249.6400 14.39771387619029
SL-16 R/B               
1 23705U 95058B   26067.07816516  .00000263  00000+0  15897-3 0  9992
2 23705  71.0217 183.6379 0010863 128.6757 231.5340 14.15494257567624
SL-16 R/B               
1 24298U 96051B   26066.75807975  .00000132  00000+0  98335-4 0  9991
2 24298  70.7601 179.3268 0015241 150.9176 209.2796 14.12415165521379
ORBVIEW 2 (SEASTAR)     
1 24883U 97037A   26067.02385021  .00000451  00000+0  17291-3 0  9995
2 24883  98.8564 231.2915 0003123  75.4180 284.7351 14.35493739508230
SL-16 R/B               
1 25400U 98043G   26067.11784227  .00000105  00000+0  63098-4 0  9993
2 25400  98.8251  20.4701 0010297  24.8767 335.2907 14.26049346438769
SL-16 R/B               
1 25407U 98045B   26066.73671864  .00000056  00000+0  52520-4 0  9994
2 25407  71.0114 185.6803 0006624  11.1404 348.9865 14.16189466426825
ISS (ZARYA)             
1 25544U 98067A   26066.77087839  .00014056  00000+0  26707-3 0  9999
2 25544  51.6320  81.8427 0008117 167.9196 192.1989 15.48514260556039
CZ-4B R/B               
1 25732U 99025C   26067.11344792  .00000069  00000+0  54325-4 0  9993
2 25732  98.6630 111.4324 0036835 351.1867  70.2929 14.18265050387947
OKEAN-O                 
1 25860U 99039A   26067.16491919  .00000961  00000+0  13290-3 0  9995
2 25860  97.9445 127.0720 0001275  69.6204 290.5144 14.80332974434166
SL-16 R/B               
1 25861U 99039B   26067.14621828  .00000863  00000+0  11618-3 0  9991
2 25861  97.9969 126.2453 0013456 261.6550  98.3137 14.81729624436637
DELTA 2 R/B             
1 25876U 99041E   26067.09670904  .00001585  00000+0  29297-3 0  9997
2 25876  51.7631 307.6435 0502343 343.7360  14.7942 14.11833684362809
HELIOS 1B               
1 25977U 99064A   26066.96511817  .00002610  00000+0  29297-3 0  9996
2 25977  98.1696 329.1580 0002470  77.2904 282.8588 14.87691939685008
TERRA                   
1 25994U 99068A   26067.13321992  .00000621  00000+0  13563-3 0  9991
2 25994  97.9597 120.6274 0002605 155.0537 230.1693 14.61013036394856
SL-16 R/B               
1 26070U 00006B   26067.10488581 -.00000018  00000+0  15075-4 0  9998
2 26070  71.0011 101.1702 0016887 192.5068 167.5638 14.15825827348330
TITAN 4B R/B            
1 26474U 00047B   26067.10635367  .00006705  00000+0  41764-3 0  9998
2 26474  67.9898  44.9623 0038471  37.2919 323.0890 15.09544173392675
ENVISAT                 
1 27386U 02009A   26066.86525194  .00000201  00000+0  78922-4 0  9991
2 27386  98.3727  20.5060 0001344  83.4028 293.7966 14.39036200258919
IDEFIX & ARIANE 42P R/B 
1 27422U 02021B   26066.74786387  .00000425  00000+0  17794-3 0  9993
2 27422  98.5867   5.3774 0011458 187.9792 172.1210 14.31024715243742
AQUA                    
1 27424U 02022A   26067.17816267  .00001590  00000+0  32707-3 0  9990
2 27424  98.4174  34.5155 0000574  73.7019 343.7683 14.61973579268518
CZ-4B R/B               
1 27432U 02024C   26067.15283215  .00000052  00000+0  49753-4 0  9992
2 27432  98.8841 120.5672 0050552  28.5565 341.5875 14.14547416229024
MIDORI II (ADEOS-II)    
1 27597U 02056A   26066.77356824  .00000460  00000+0  19871-3 0  9993
2 27597  98.7767  25.2379 0001668  45.6600 314.4718 14.29283516210020
H-2A R/B                
1 27601U 02056E   26066.88397884  .00000384  00000+0  14890-3 0  9993
2 27601  98.3200  27.3183 0070396 166.0224 209.2343 14.33759464213858
CZ-4B R/B               
1 28059U 03049C   26067.00816241  .00000568  00000+0  14191-3 0  9990
2 28059  98.6878  61.8469 0047191 236.1495 123.5205 14.55018640186353
CZ-2C R/B               
1 28222U 04012C   26067.13795950  .00073007  00000+0  75856-3 0  9993
2 28222  97.7227 132.2834 0013011 315.6412  44.3802 15.64285708204039
SL-16 R/B               
1 28353U 04021B   26066.75990996 -.00000224  00000+0 -91754-4 0  9991
2 28353  70.9994 236.5424 0003933  12.7620 347.3601 14.14598625122568
CZ-4B R/B               
1 28415U 04035C   26067.07685045  .00012195  00000+0  42884-3 0  9994
2 28415  97.3499 101.3384 0031169 337.5188  22.4684 15.29030592179669
CZ-2C R/B               
1 28480U 04046B   26067.15331375  .00000165  00000+0  76022-4 0  9997
2 28480  98.1985 342.2329 0139804 158.9654 201.7357 14.26991479108288
ARIANE 5 R/B            
1 28499U 04049H   26067.01582662  .00001123  00000+0  12999-3 0  9999
2 28499  98.2624 235.4102 0084060 357.3733   2.7027 14.85262810145545
